{"type": "FeatureCollection", "features": [ {"type": "Feature", "properties": {"norad_id": 34736, "name": "COSMOS 2251 DEB", "group": "cosmos-2251-debris", "lat": -35.48114785966638, "lon": -120.77342521585534, "alt_km": 451.42788586944425, "timestamp": "2025-12-07T14:37:05.598601+00:00", "meta": {"OBJECT_NAME": "COSMOS 2251 DEB", "OBJECT_ID": "1993-036ZE", "EPOCH": "2025-12-06T22:06:49.677120", "MEAN_MOTION": 15.42240724, "ECCENTRICITY": 0.00167045, "INCLINATION": 74.0028, "RA_OF_ASC_NODE": 48.9205, "ARG_OF_PERICENTER": 351.4545, "MEAN_ANOMALY": 8.6377, "EPHEMERIS_TYPE": 0, "CLASSIFICATION_TYPE": "U", "NORAD_CAT_ID": 34736, "ELEMENT_SET_NO": 999, "REV_AT_EPOCH": 88358, "BSTAR": 0.0095653947, "MEAN_MOTION_DOT": 0.0043694, "MEAN_MOTION_DDOT": 0}, "tle": {"line1": "1 34736U 93036ZE  25340.92140830  .00436940  00000+0  95654-2 0  9991", "line2": "2 34736  74.0028  48.9205 0016704 351.4545   8.6377 15.42240724883583"}}, "geometry": {"type": "Point", "coordinates": [-120.77342521585534, -35.48114785966638]}}, {"type": "Feature", "properties": {"norad_id": 34738, "name": "COSMOS 2251 DEB", "group": "cosmos-2251-debris", "lat": 33.24380432686659, "lon": -37.97477847081226, "alt_km": 765.8246794030683, "timestamp": "2025-12-07T14:37:05.598610+00:00", "meta": {"OBJECT_NAME": "COSMOS 2251 DEB", "OBJECT_ID": "1993-036ZG", "EPOCH": "2025-12-06T21:54:43.378848", "MEAN_MOTION": 14.46280761, "ECCENTRICITY": 0.00472403, "INCLINATION": 74.0142, "RA_OF_ASC_NODE": 154.1561, "ARG_OF_PERICENTER": 301.5148, "MEAN_ANOMALY": 181.0495, "EPHEMERIS_TYPE": 0, "CLASSIFICATION_TYPE": "U", "NORAD_CAT_ID": 34738, "ELEMENT_SET_NO": 999, "REV_AT_EPOCH": 87774, "BSTAR": 0.00053304795, "MEAN_MOTION_DOT": 1.909e-05, "MEAN_MOTION_DDOT": 0}, "tle": {"line1": "1 34738U 93036ZG  25340.91300207  .00001909  00000+0  53305-3 0  9999", "line2": "2 34738  74.0142 154.1561 0047240 301.5148 181.0495 14.46280761877747"}}, "geometry": {"type": "Point", "coordinates": [-37.97477847081226, 33.24380432686659]}}, {"type": "Feature", "properties": {"norad_id": 34750, "name": "COSMOS 2251 DEB", "group": "cosmos-2251-debris", "lat": 25.14493515906551, "lon": -140.79642662909012, "alt_km": 709.2441627271137, "timestamp": "2025-12-07T14:37:05.598620+00:00", "meta": {"OBJECT_NAME": "COSMOS 2251 DEB", "OBJECT_ID": "1993-036ZU", "EPOCH": "2025-12-06T19:19:40.666656", "MEAN_MOTION": 14.61236459, "ECCENTRICITY": 0.00391604, "INCLINATION": 74.1079, "RA_OF_ASC_NODE": 213.0479, "ARG_OF_PERICENTER": 168.2065, "MEAN_ANOMALY": 311.9861, "EPHEMERIS_TYPE": 0, "CLASSIFICATION_TYPE": "U", "NORAD_CAT_ID": 34750, "ELEMENT_SET_NO": 999, "REV_AT_EPOCH": 88144, "BSTAR": 0.0017769068, "MEAN_MOTION_DOT": 8.839e-05, "MEAN_MOTION_DDOT": 0}, "tle": {"line1": "1 34750U 93036ZU  25340.80533179  .00008839  00000+0  17769-2 0  9999", "line2": "2 34750  74.1079 213.0479 0039160 168.2065 311.9861 14.61236459881447"}}, "geometry": {"type": "Point", "coordinates": [-140.79642662909012, 25.14493515906551]}}, {"type": "Feature", "properties": {"norad_id": 34752, "name": "COSMOS 2251 DEB", "group": "cosmos-2251-debris", "lat": 3.4200703029468036, "lon": -169.93475140904218, "alt_km": 542.3963212262533, "timestamp": "2025-12-07T14:37:05.598630+00:00", "meta": {"OBJECT_NAME": "COSMOS 2251 DEB", "OBJECT_ID": "1993-036ZW", "EPOCH": "2025-12-06T02:36:58.038912", "MEAN_MOTION": 14.9970291, "ECCENTRICITY": 0.00481191, "INCLINATION": 74.0135, "RA_OF_ASC_NODE": 14.0973, "ARG_OF_PERICENTER": 144.9255, "MEAN_ANOMALY": 215.5117, "EPHEMERIS_TYPE": 0, "CLASSIFICATION_TYPE": "U", "NORAD_CAT_ID": 34752, "ELEMENT_SET_NO": 999, "REV_AT_EPOCH": 89750, "BSTAR": 0.0014680231, "MEAN_MOTION_DOT": 0.00018574, "MEAN_MOTION_DDOT": 0}, "tle": {"line1": "1 34752U 93036ZW  25340.10900508  .00018574  00000+0  14680-2 0  9994", "line2": "2 34752  74.0135  14.0973 0048119 144.9255 215.5117 14.99702910897503"}}, "geometry": {"type": "Point", "coordinates": [-169.93475140904218, 3.4200703029468036]}}, {"type": "Feature", "properties": {"norad_id": 34754, "name": "COSMOS 2251 DEB", "group": "cosmos-2251-debris", "lat": 14.03931698447985, "lon": 52.986631567684576, "alt_km": 778.2400717333694, "timestamp": "2025-12-07T14:37:05.598641+00:00", "meta": {"OBJECT_NAME": "COSMOS 2251 DEB", "OBJECT_ID": "1993-036ZY", "EPOCH": "2025-12-06T21:45:37.262592", "MEAN_MOTION": 14.40468356, "ECCENTRICITY": 0.00293263, "INCLINATION": 74.0305, "RA_OF_ASC_NODE": 238.3916, "ARG_OF_PERICENTER": 355.6432, "MEAN_ANOMALY": 128.5636, "EPHEMERIS_TYPE": 0, "CLASSIFICATION_TYPE": "U", "NORAD_CAT_ID": 34754, "ELEMENT_SET_NO": 999, "REV_AT_EPOCH": 88049, "BSTAR": 0.00039674075, "MEAN_MOTION_DOT": 1.241e-05, "MEAN_MOTION_DDOT": 0}, "tle": {"line1": "1 34754U 93036ZY  25340.90668128  .00001241  00000+0  39674-3 0  9997", "line2": "2 34754  74.0305 238.3916 0029326 355.6432 128.5636 14.40468356880497"}}, "geometry": {"type": "Point", "coordinates": [52.986631567684576, 14.03931698447985]}}, {"type": "Feature", "properties": {"norad_id": 34755, "name": "COSMOS 2251 DEB", "group": "cosmos-2251-debris", "lat": 44.124801500913584, "lon": 102.03303294927542, "alt_km": 1368.7989729698384, "timestamp": "2025-12-07T14:37:05.598651+00:00", "meta": {"OBJECT_NAME": "COSMOS 2251 DEB", "OBJECT_ID": "1993-036ZZ", "EPOCH": "2025-12-06T06:15:56.155968", "MEAN_MOTION": 13.50527747, "ECCENTRICITY": 0.04083359, "INCLINATION": 73.9257, "RA_OF_ASC_NODE": 300.4376, "ARG_OF_PERICENTER": 321.3998, "MEAN_ANOMALY": 100.0607, "EPHEMERIS_TYPE": 0, "CLASSIFICATION_TYPE": "U", "NORAD_CAT_ID": 34755, "ELEMENT_SET_NO": 999, "REV_AT_EPOCH": 82436, "BSTAR": 0.0032895086, "MEAN_MOTION_DOT": 3.526e-05, "MEAN_MOTION_DDOT": 0}, "tle": {"line1": "1 34755U 93036ZZ  25340.26106662  .00003526  00000+0  32895-2 0  9992", "line2": "2 34755  73.9257 300.4376 0408335 321.3998 100.0607 13.50527747824368"}}, "geometry": {"type": "Point", "coordinates": [102.03303294927542, 44.124801500913584]}}, {"type": "Feature", "properties": {"norad_id": 34756, "name": "COSMOS 2251 DEB", "group": "cosmos-2251-debris", "lat": 73.24883982842978, "lon": -139.5799448274756, "alt_km": 1060.894378019194, "timestamp": "2025-12-07T14:37:05.598661+00:00", "meta": {"OBJECT_NAME": "COSMOS 2251 DEB", "OBJECT_ID": "1993-036AAA", "EPOCH": "2025-12-06T15:20:34.011456", "MEAN_MOTION": 13.67223659, "ECCENTRICITY": 0.03447029, "INCLINATION": 74.0022, "RA_OF_ASC_NODE": 114.4011, "ARG_OF_PERICENTER": 351.5473, "MEAN_ANOMALY": 7.9922, "EPHEMERIS_TYPE": 0, "CLASSIFICATION_TYPE": "U", "NORAD_CAT_ID": 34756, "ELEMENT_SET_NO": 999, "REV_AT_EPOCH": 83338, "BSTAR": 0.0013877943, "MEAN_MOTION_DOT": 1.734e-05, "MEAN_MOTION_DDOT": 0}, "tle": {"line1": "1 34756U 93036AAA 25340.63928254  .00001734  00000+0  13878-2 0  9992", "line2": "2 34756  74.0022 114.4011 0344702 351.5473   7.9922 13.67223659833380"}}, "geometry": {"type": "Point", "coordinates": [-139.5799448274756, 73.24883982842978]}}, {"type": "Feature", "properties": {"norad_id": 34758, "name": "COSMOS 2251 DEB", "group": "cosmos-2251-debris", "lat": 8.816211982447099, "lon": -49.71329143914178, "alt_km": 909.2708524370519, "timestamp": "2025-12-07T14:37:05.598672+00:00", "meta": {"OBJECT_NAME": "COSMOS 2251 DEB", "OBJECT_ID": "1993-036AAC", "EPOCH": "2025-12-06T08:31:13.087776", "MEAN_MOTION": 13.58041797, "ECCENTRICITY": 0.03808027, "INCLINATION": 74.1071, "RA_OF_ASC_NODE": 309.7717, "ARG_OF_PERICENTER": 75.0268, "MEAN_ANOMALY": 289.2663, "EPHEMERIS_TYPE": 0, "CLASSIFICATION_TYPE": "U", "NORAD_CAT_ID": 34758, "ELEMENT_SET_NO": 999, "REV_AT_EPOCH": 82823, "BSTAR": 0.0017403081, "MEAN_MOTION_DOT": 2.002e-05, "MEAN_MOTION_DDOT": 0}, "tle": {"line1": "1 34758U 93036AAC 25340.35501259  .00002002  00000+0  17403-2 0  9992", "line2": "2 34758  74.1071 309.7717 0380802  75.0268 289.2663 13.58041797828236"}}, "geometry": {"type": "Point", "coordinates": [-49.71329143914178, 8.816211982447099]}}, {"type": "Feature", "properties": {"norad_id": 34760, "name": "COSMOS 2251 DEB", "group": "cosmos-2251-debris", "lat": -26.88582332571191, "lon": 139.846722646877, "alt_km": 896.0527138056214, "timestamp": "2025-12-07T14:37:05.598682+00:00", "meta": {"OBJECT_NAME": "COSMOS 2251 DEB", "OBJECT_ID": "1993-036AAE", "EPOCH": "2025-12-06T16:28:03.518112", "MEAN_MOTION": 14.19544296, "ECCENTRICITY": 0.00964765, "INCLINATION": 74.0631, "RA_OF_ASC_NODE": 313.1631, "ARG_OF_PERICENTER": 6.6765, "MEAN_ANOMALY": 167.0157, "EPHEMERIS_TYPE": 0, "CLASSIFICATION_TYPE": "U", "NORAD_CAT_ID": 34760, "ELEMENT_SET_NO": 999, "REV_AT_EPOCH": 86602, "BSTAR": 0.0010871118, "MEAN_MOTION_DOT": 2.377e-05, "MEAN_MOTION_DDOT": 0}, "tle": {"line1": "1 34760U 93036AAE 25340.68615183  .00002377  00000+0  10871-2 0  9990", "line2": "2 34760  74.0631 313.1631 0096476   6.6765 167.0157 14.19544296866027"}}, "geometry": {"type": "Point", "coordinates": [139.846722646877, -26.88582332571191]}}, {"type": "Feature", "properties": {"norad_id": 34761, "name": "COSMOS 2251 DEB", "group": "cosmos-2251-debris", "lat": 30.739906972025175, "lon": -177.55853916799768, "alt_km": 767.3215428467383, "timestamp": "2025-12-07T14:37:05.598692+00:00", "meta": {"OBJECT_NAME": "COSMOS 2251 DEB", "OBJECT_ID": "1993-036AAF", "EPOCH": "2025-12-06T19:34:14.659680", "MEAN_MOTION": 14.38019015, "ECCENTRICITY": 0.00361673, "INCLINATION": 74.0293, "RA_OF_ASC_NODE": 13.709, "ARG_OF_PERICENTER": 49.6551, "MEAN_ANOMALY": 310.7752, "EPHEMERIS_TYPE": 0, "CLASSIFICATION_TYPE": "U", "NORAD_CAT_ID": 34761, "ELEMENT_SET_NO": 999, "REV_AT_EPOCH": 87564, "BSTAR": 0.0010339167, "MEAN_MOTION_DOT": 3.127e-05, "MEAN_MOTION_DDOT": 0}, "tle": {"line1": "1 34761U 93036AAF 25340.81544745  .00003127  00000+0  10339-2 0  9994", "line2": "2 34761  74.0293  13.7090 0036167  49.6551 310.7752 14.38019015875648"}}, "geometry": {"type": "Point", "coordinates": [-177.55853916799768, 30.739906972025175]}}]}